<?xml version="1.0" encoding="UTF-8"?>
<gpx version="1.1" creator="Shanghai Running Route Map" xmlns="http://www.topografix.com/GPX/1/1" xmlns:xsi="http://www.w3.org/2001/XMLSchema-instance" xsi:schemaLocation="http://www.topografix.com/GPX/1/1 http://www.topografix.com/GPX/1/1/gpx.xsd">
  <metadata><name>冠东苑-淞滨路</name><desc>第一跑步段；到淞滨路后换乘地铁3号线。</desc></metadata>
  <trk><name>冠东苑-淞滨路</name><desc>第一跑步段；到淞滨路后换乘地铁3号线。</desc><type>running</type><trkseg>
    <trkpt lat="31.415809" lon="121.479717"/>
    <trkpt lat="31.414842" lon="121.480211"/>
    <trkpt lat="31.413816" lon="121.480723"/>
    <trkpt lat="31.414837" lon="121.483677"/>
    <trkpt lat="31.414991" lon="121.484116"/>
    <trkpt lat="31.415398" lon="121.485287"/>
    <trkpt lat="31.415548" lon="121.485677"/>
    <trkpt lat="31.415676" lon="121.486009"/>
    <trkpt lat="31.415716" lon="121.486114"/>
    <trkpt lat="31.415853" lon="121.486304"/>
    <trkpt lat="31.415997" lon="121.486542"/>
    <trkpt lat="31.416095" lon="121.486719"/>
    <trkpt lat="31.41615" lon="121.486962"/>
    <trkpt lat="31.416192" lon="121.487277"/>
    <trkpt lat="31.416143" lon="121.487918"/>
    <trkpt lat="31.416143" lon="121.488184"/>
    <trkpt lat="31.416198" lon="121.488471"/>
    <trkpt lat="31.416206" lon="121.488702"/>
    <trkpt lat="31.416189" lon="121.488799"/>
    <trkpt lat="31.416146" lon="121.48898"/>
    <trkpt lat="31.416071" lon="121.489094"/>
    <trkpt lat="31.415755" lon="121.489312"/>
    <trkpt lat="31.414503" lon="121.490019"/>
    <trkpt lat="31.414253" lon="121.490144"/>
    <trkpt lat="31.413838" lon="121.490351"/>
    <trkpt lat="31.413451" lon="121.490544"/>
    <trkpt lat="31.412626" lon="121.491019"/>
    <trkpt lat="31.412204" lon="121.491425"/>
    <trkpt lat="31.41156" lon="121.492044"/>
    <trkpt lat="31.411406" lon="121.4922"/>
    <trkpt lat="31.411274" lon="121.492334"/>
    <trkpt lat="31.410603" lon="121.493013"/>
    <trkpt lat="31.410204" lon="121.493281"/>
    <trkpt lat="31.410082" lon="121.493323"/>
    <trkpt lat="31.409837" lon="121.493517"/>
    <trkpt lat="31.409711" lon="121.493619"/>
    <trkpt lat="31.409397" lon="121.493978"/>
    <trkpt lat="31.409177" lon="121.494158"/>
    <trkpt lat="31.409033" lon="121.494292"/>
    <trkpt lat="31.408292" lon="121.495056"/>
    <trkpt lat="31.408125" lon="121.495258"/>
    <trkpt lat="31.408102" lon="121.495286"/>
    <trkpt lat="31.40802" lon="121.495385"/>
    <trkpt lat="31.407291" lon="121.496125"/>
    <trkpt lat="31.407069" lon="121.496402"/>
    <trkpt lat="31.406785" lon="121.496804"/>
    <trkpt lat="31.406611" lon="121.496971"/>
    <trkpt lat="31.406424" lon="121.497089"/>
    <trkpt lat="31.406368" lon="121.497113"/>
    <trkpt lat="31.406264" lon="121.497142"/>
    <trkpt lat="31.405955" lon="121.497194"/>
    <trkpt lat="31.405813" lon="121.49719"/>
    <trkpt lat="31.40557" lon="121.497166"/>
    <trkpt lat="31.405282" lon="121.497178"/>
    <trkpt lat="31.405043" lon="121.497215"/>
    <trkpt lat="31.404727" lon="121.497328"/>
    <trkpt lat="31.404908" lon="121.498326"/>
    <trkpt lat="31.404946" lon="121.498581"/>
    <trkpt lat="31.404988" lon="121.498825"/>
    <trkpt lat="31.405088" lon="121.499061"/>
    <trkpt lat="31.405109" lon="121.499219"/>
    <trkpt lat="31.405251" lon="121.499511"/>
    <trkpt lat="31.404869" lon="121.499982"/>
    <trkpt lat="31.404638" lon="121.50023"/>
    <trkpt lat="31.404382" lon="121.500442"/>
    <trkpt lat="31.404301" lon="121.500537"/>
    <trkpt lat="31.404826" lon="121.501122"/>
    <trkpt lat="31.404933" lon="121.501221"/>
    <trkpt lat="31.404826" lon="121.501122"/>
    <trkpt lat="31.40469" lon="121.50129"/>
    <trkpt lat="31.40459" lon="121.50141"/>
    <trkpt lat="31.404449" lon="121.501578"/>
    <trkpt lat="31.404233" lon="121.501677"/>
    <trkpt lat="31.403987" lon="121.501725"/>
    <trkpt lat="31.403745" lon="121.501852"/>
    <trkpt lat="31.403581" lon="121.501984"/>
    <trkpt lat="31.403356" lon="121.502223"/>
    <trkpt lat="31.403202" lon="121.502423"/>
    <trkpt lat="31.403079" lon="121.502654"/>
    <trkpt lat="31.40302" lon="121.502736"/>
    <trkpt lat="31.402984" lon="121.502786"/>
    <trkpt lat="31.402879" lon="121.502846"/>
    <trkpt lat="31.402787" lon="121.502926"/>
    <trkpt lat="31.402707" lon="121.503007"/>
    <trkpt lat="31.402635" lon="121.503125"/>
    <trkpt lat="31.402458" lon="121.503481"/>
    <trkpt lat="31.402348" lon="121.503552"/>
    <trkpt lat="31.402204" lon="121.503567"/>
    <trkpt lat="31.401997" lon="121.503581"/>
    <trkpt lat="31.401905" lon="121.503548"/>
    <trkpt lat="31.401828" lon="121.503492"/>
    <trkpt lat="31.401767" lon="121.503419"/>
    <trkpt lat="31.401757" lon="121.503383"/>
    <trkpt lat="31.401614" lon="121.50325"/>
    <trkpt lat="31.401505" lon="121.503161"/>
    <trkpt lat="31.401417" lon="121.503141"/>
    <trkpt lat="31.401296" lon="121.503198"/>
    <trkpt lat="31.400883" lon="121.503431"/>
    <trkpt lat="31.400478" lon="121.503618"/>
    <trkpt lat="31.400342" lon="121.503643"/>
    <trkpt lat="31.400207" lon="121.503766"/>
    <trkpt lat="31.399732" lon="121.504052"/>
    <trkpt lat="31.39955" lon="121.504123"/>
    <trkpt lat="31.399079" lon="121.504308"/>
    <trkpt lat="31.399054" lon="121.504315"/>
    <trkpt lat="31.3983" lon="121.504541"/>
    <trkpt lat="31.398226" lon="121.504561"/>
    <trkpt lat="31.397995" lon="121.504625"/>
    <trkpt lat="31.397156" lon="121.504785"/>
    <trkpt lat="31.397022" lon="121.504809"/>
    <trkpt lat="31.396456" lon="121.504857"/>
    <trkpt lat="31.39635" lon="121.504866"/>
    <trkpt lat="31.395218" lon="121.504898"/>
    <trkpt lat="31.395148" lon="121.504911"/>
    <trkpt lat="31.395086" lon="121.50495"/>
    <trkpt lat="31.395024" lon="121.504978"/>
    <trkpt lat="31.394972" lon="121.504985"/>
    <trkpt lat="31.394915" lon="121.504976"/>
    <trkpt lat="31.39486" lon="121.504925"/>
    <trkpt lat="31.394763" lon="121.504792"/>
    <trkpt lat="31.394644" lon="121.5046"/>
    <trkpt lat="31.394633" lon="121.50456"/>
    <trkpt lat="31.394613" lon="121.504487"/>
    <trkpt lat="31.394586" lon="121.504259"/>
    <trkpt lat="31.394577" lon="121.504055"/>
    <trkpt lat="31.394583" lon="121.504018"/>
    <trkpt lat="31.394602" lon="121.503918"/>
    <trkpt lat="31.394653" lon="121.503773"/>
    <trkpt lat="31.394738" lon="121.503622"/>
    <trkpt lat="31.394848" lon="121.503493"/>
    <trkpt lat="31.394968" lon="121.503317"/>
    <trkpt lat="31.395086" lon="121.503111"/>
    <trkpt lat="31.395212" lon="121.502844"/>
    <trkpt lat="31.395254" lon="121.502712"/>
    <trkpt lat="31.395303" lon="121.502622"/>
    <trkpt lat="31.395496" lon="121.502537"/>
    <trkpt lat="31.39555" lon="121.502501"/>
    <trkpt lat="31.395577" lon="121.502431"/>
    <trkpt lat="31.395577" lon="121.502363"/>
    <trkpt lat="31.395495" lon="121.502002"/>
    <trkpt lat="31.395456" lon="121.501737"/>
    <trkpt lat="31.395443" lon="121.501644"/>
    <trkpt lat="31.395097" lon="121.50175"/>
    <trkpt lat="31.39394" lon="121.502103"/>
    <trkpt lat="31.392907" lon="121.50238"/>
    <trkpt lat="31.391449" lon="121.50206"/>
    <trkpt lat="31.390819" lon="121.501868"/>
    <trkpt lat="31.390725" lon="121.501825"/>
    <trkpt lat="31.390636" lon="121.501743"/>
    <trkpt lat="31.390614" lon="121.501663"/>
    <trkpt lat="31.39062" lon="121.501576"/>
    <trkpt lat="31.391105" lon="121.500171"/>
    <trkpt lat="31.391083" lon="121.5"/>
    <trkpt lat="31.390863" lon="121.499811"/>
    <trkpt lat="31.390011" lon="121.499341"/>
    <trkpt lat="31.389907" lon="121.499173"/>
    <trkpt lat="31.389679" lon="121.49913"/>
    <trkpt lat="31.388048" lon="121.498263"/>
    <trkpt lat="31.386216" lon="121.497288"/>
    <trkpt lat="31.38558" lon="121.496949"/>
    <trkpt lat="31.384829" lon="121.496536"/>
    <trkpt lat="31.384027" lon="121.49612"/>
    <trkpt lat="31.383734" lon="121.495945"/>
    <trkpt lat="31.382499" lon="121.49532"/>
    <trkpt lat="31.382157" lon="121.495152"/>
    <trkpt lat="31.381348" lon="121.494699"/>
    <trkpt lat="31.380553" lon="121.494268"/>
    <trkpt lat="31.380483" lon="121.494222"/>
    <trkpt lat="31.379896" lon="121.493904"/>
    <trkpt lat="31.379434" lon="121.493652"/>
    <trkpt lat="31.379377" lon="121.493621"/>
    <trkpt lat="31.378123" lon="121.494428"/>
    <trkpt lat="31.377721" lon="121.494737"/>
    <trkpt lat="31.377116" lon="121.495199"/>
    <trkpt lat="31.376863" lon="121.494582"/>
    <trkpt lat="31.37664" lon="121.494155"/>
    <trkpt lat="31.376404" lon="121.493724"/>
    <trkpt lat="31.375949" lon="121.492822"/>
    <trkpt lat="31.37495" lon="121.490793"/>
    <trkpt lat="31.374708" lon="121.49033"/>
    <trkpt lat="31.374521" lon="121.489939"/>
    <trkpt lat="31.374451" lon="121.489794"/>
    <trkpt lat="31.374128" lon="121.489177"/>
    <trkpt lat="31.372726" lon="121.490021"/>
    <trkpt lat="31.372317" lon="121.489205"/>
    <trkpt lat="31.372186" lon="121.488997"/>
    <trkpt lat="31.371228" lon="121.486892"/>
    <trkpt lat="31.372643" lon="121.486291"/>
    <trkpt lat="31.372981" lon="121.486929"/>
    <trkpt lat="31.373386" lon="121.487742"/>
    <trkpt lat="31.372912" lon="121.488034"/>
  </trkseg></trk>
</gpx>
