<?xml version="1.0" encoding="UTF-8"?>
<gpx version="1.1" creator="Shanghai Running Route Map" xmlns="http://www.topografix.com/GPX/1/1" xmlns:xsi="http://www.w3.org/2001/XMLSchema-instance" xsi:schemaLocation="http://www.topografix.com/GPX/1/1 http://www.topografix.com/GPX/1/1/gpx.xsd">
  <metadata><name>长江南-时尚中心</name><desc>第二跑步段；长江南路地铁站至上海国际时尚中心。</desc></metadata>
  <trk><name>长江南-时尚中心</name><desc>第二跑步段；长江南路地铁站至上海国际时尚中心。</desc><type>running</type><trkseg>
    <trkpt lat="31.331044" lon="121.491644"/>
    <trkpt lat="31.331051" lon="121.49184"/>
    <trkpt lat="31.331091" lon="121.492049"/>
    <trkpt lat="31.331158" lon="121.492262"/>
    <trkpt lat="31.331294" lon="121.49249"/>
    <trkpt lat="31.331415" lon="121.492655"/>
    <trkpt lat="31.330909" lon="121.492244"/>
    <trkpt lat="31.330738" lon="121.492109"/>
    <trkpt lat="31.330701" lon="121.492082"/>
    <trkpt lat="31.330449" lon="121.491893"/>
    <trkpt lat="31.33016" lon="121.491702"/>
    <trkpt lat="31.329593" lon="121.491391"/>
    <trkpt lat="31.329019" lon="121.491127"/>
    <trkpt lat="31.328526" lon="121.490963"/>
    <trkpt lat="31.327872" lon="121.490814"/>
    <trkpt lat="31.327607" lon="121.490772"/>
    <trkpt lat="31.327038" lon="121.490718"/>
    <trkpt lat="31.326756" lon="121.490714"/>
    <trkpt lat="31.326394" lon="121.490737"/>
    <trkpt lat="31.32617" lon="121.490762"/>
    <trkpt lat="31.325266" lon="121.490911"/>
    <trkpt lat="31.324781" lon="121.491005"/>
    <trkpt lat="31.324783" lon="121.491069"/>
    <trkpt lat="31.324786" lon="121.49148"/>
    <trkpt lat="31.324795" lon="121.49203"/>
    <trkpt lat="31.324823" lon="121.49289"/>
    <trkpt lat="31.324927" lon="121.496549"/>
    <trkpt lat="31.324959" lon="121.502075"/>
    <trkpt lat="31.324295" lon="121.502088"/>
    <trkpt lat="31.323197" lon="121.502081"/>
    <trkpt lat="31.323039" lon="121.502071"/>
    <trkpt lat="31.323001" lon="121.502073"/>
    <trkpt lat="31.322832" lon="121.502066"/>
    <trkpt lat="31.322664" lon="121.502061"/>
    <trkpt lat="31.322476" lon="121.502044"/>
    <trkpt lat="31.322471" lon="121.502224"/>
    <trkpt lat="31.322467" lon="121.502341"/>
    <trkpt lat="31.322523" lon="121.502414"/>
    <trkpt lat="31.322558" lon="121.502487"/>
    <trkpt lat="31.322561" lon="121.502527"/>
    <trkpt lat="31.322568" lon="121.50262"/>
    <trkpt lat="31.322553" lon="121.50312"/>
    <trkpt lat="31.322486" lon="121.504123"/>
    <trkpt lat="31.322478" lon="121.5042"/>
    <trkpt lat="31.322383" lon="121.504734"/>
    <trkpt lat="31.322217" lon="121.505372"/>
    <trkpt lat="31.322033" lon="121.505939"/>
    <trkpt lat="31.321842" lon="121.506429"/>
    <trkpt lat="31.321811" lon="121.506493"/>
    <trkpt lat="31.321792" lon="121.506532"/>
    <trkpt lat="31.32163" lon="121.506858"/>
    <trkpt lat="31.321526" lon="121.507051"/>
    <trkpt lat="31.321506" lon="121.507083"/>
    <trkpt lat="31.321063" lon="121.507851"/>
    <trkpt lat="31.320803" lon="121.508333"/>
    <trkpt lat="31.320713" lon="121.508479"/>
    <trkpt lat="31.320556" lon="121.508734"/>
    <trkpt lat="31.320304" lon="121.509143"/>
    <trkpt lat="31.319731" lon="121.510098"/>
    <trkpt lat="31.319644" lon="121.510211"/>
    <trkpt lat="31.319626" lon="121.510231"/>
    <trkpt lat="31.319609" lon="121.510238"/>
    <trkpt lat="31.319548" lon="121.510254"/>
    <trkpt lat="31.319486" lon="121.510256"/>
    <trkpt lat="31.31945" lon="121.510238"/>
    <trkpt lat="31.319112" lon="121.509918"/>
    <trkpt lat="31.318792" lon="121.509632"/>
    <trkpt lat="31.318434" lon="121.509406"/>
    <trkpt lat="31.318168" lon="121.509166"/>
    <trkpt lat="31.318149" lon="121.50915"/>
    <trkpt lat="31.318131" lon="121.509134"/>
    <trkpt lat="31.318075" lon="121.509214"/>
    <trkpt lat="31.317986" lon="121.509349"/>
    <trkpt lat="31.317966" lon="121.50938"/>
    <trkpt lat="31.31798" lon="121.509402"/>
    <trkpt lat="31.317991" lon="121.509429"/>
    <trkpt lat="31.318038" lon="121.509556"/>
    <trkpt lat="31.318046" lon="121.509637"/>
    <trkpt lat="31.318049" lon="121.509707"/>
    <trkpt lat="31.317988" lon="121.509819"/>
    <trkpt lat="31.317834" lon="121.510103"/>
    <trkpt lat="31.317296" lon="121.511076"/>
    <trkpt lat="31.316857" lon="121.511973"/>
    <trkpt lat="31.316805" lon="121.512092"/>
    <trkpt lat="31.316546" lon="121.512867"/>
    <trkpt lat="31.316535" lon="121.512893"/>
    <trkpt lat="31.316501" lon="121.512921"/>
    <trkpt lat="31.316468" lon="121.512931"/>
    <trkpt lat="31.31643" lon="121.512931"/>
    <trkpt lat="31.31593" lon="121.512784"/>
    <trkpt lat="31.315769" lon="121.512743"/>
    <trkpt lat="31.315497" lon="121.512703"/>
    <trkpt lat="31.315423" lon="121.513469"/>
    <trkpt lat="31.315371" lon="121.514978"/>
    <trkpt lat="31.314558" lon="121.514977"/>
    <trkpt lat="31.313868" lon="121.514969"/>
    <trkpt lat="31.313852" lon="121.514851"/>
    <trkpt lat="31.313806" lon="121.514744"/>
    <trkpt lat="31.313733" lon="121.51466"/>
    <trkpt lat="31.313641" lon="121.514608"/>
    <trkpt lat="31.31354" lon="121.514592"/>
    <trkpt lat="31.313468" lon="121.514604"/>
    <trkpt lat="31.3134" lon="121.514634"/>
    <trkpt lat="31.31334" lon="121.514682"/>
    <trkpt lat="31.313291" lon="121.514744"/>
    <trkpt lat="31.313255" lon="121.514818"/>
    <trkpt lat="31.313235" lon="121.514899"/>
    <trkpt lat="31.31323" lon="121.514984"/>
    <trkpt lat="31.312537" lon="121.514978"/>
    <trkpt lat="31.312476" lon="121.514977"/>
    <trkpt lat="31.311659" lon="121.514978"/>
    <trkpt lat="31.310846" lon="121.514981"/>
    <trkpt lat="31.310435" lon="121.514977"/>
    <trkpt lat="31.310006" lon="121.51491"/>
    <trkpt lat="31.309204" lon="121.514918"/>
    <trkpt lat="31.308036" lon="121.514926"/>
    <trkpt lat="31.307912" lon="121.514925"/>
    <trkpt lat="31.307767" lon="121.514925"/>
    <trkpt lat="31.30671" lon="121.514939"/>
    <trkpt lat="31.306542" lon="121.514937"/>
    <trkpt lat="31.306394" lon="121.514913"/>
    <trkpt lat="31.305825" lon="121.514952"/>
    <trkpt lat="31.304992" lon="121.515035"/>
    <trkpt lat="31.304787" lon="121.515063"/>
    <trkpt lat="31.304193" lon="121.515162"/>
    <trkpt lat="31.303793" lon="121.515209"/>
    <trkpt lat="31.303528" lon="121.515261"/>
    <trkpt lat="31.303252" lon="121.515319"/>
    <trkpt lat="31.303197" lon="121.515333"/>
    <trkpt lat="31.302505" lon="121.51542"/>
    <trkpt lat="31.301774" lon="121.515489"/>
    <trkpt lat="31.301815" lon="121.515657"/>
    <trkpt lat="31.30213" lon="121.51685"/>
    <trkpt lat="31.302579" lon="121.518558"/>
    <trkpt lat="31.302704" lon="121.519111"/>
    <trkpt lat="31.301963" lon="121.519262"/>
    <trkpt lat="31.301805" lon="121.519305"/>
    <trkpt lat="31.30167" lon="121.519347"/>
    <trkpt lat="31.300536" lon="121.519782"/>
    <trkpt lat="31.297607" lon="121.52093"/>
    <trkpt lat="31.295906" lon="121.521579"/>
    <trkpt lat="31.293176" lon="121.522527"/>
    <trkpt lat="31.293004" lon="121.522587"/>
    <trkpt lat="31.292981" lon="121.522595"/>
    <trkpt lat="31.291809" lon="121.523016"/>
    <trkpt lat="31.291126" lon="121.523256"/>
    <trkpt lat="31.290897" lon="121.523351"/>
    <trkpt lat="31.290638" lon="121.523474"/>
    <trkpt lat="31.290321" lon="121.523649"/>
    <trkpt lat="31.290019" lon="121.523801"/>
    <trkpt lat="31.289448" lon="121.524115"/>
    <trkpt lat="31.289156" lon="121.524302"/>
    <trkpt lat="31.288813" lon="121.52454"/>
    <trkpt lat="31.288361" lon="121.524891"/>
    <trkpt lat="31.288026" lon="121.525176"/>
    <trkpt lat="31.287648" lon="121.525527"/>
    <trkpt lat="31.288296" lon="121.526473"/>
    <trkpt lat="31.289279" lon="121.527931"/>
    <trkpt lat="31.290139" lon="121.529202"/>
    <trkpt lat="31.290286" lon="121.529486"/>
    <trkpt lat="31.290443" lon="121.529913"/>
    <trkpt lat="31.290624" lon="121.530599"/>
    <trkpt lat="31.290645" lon="121.530687"/>
    <trkpt lat="31.290841" lon="121.531443"/>
    <trkpt lat="31.291023" lon="121.53193"/>
    <trkpt lat="31.291098" lon="121.53209"/>
    <trkpt lat="31.29146" lon="121.532724"/>
    <trkpt lat="31.292105" lon="121.533833"/>
    <trkpt lat="31.292685" lon="121.534796"/>
    <trkpt lat="31.29199" lon="121.535407"/>
    <trkpt lat="31.291858" lon="121.535539"/>
    <trkpt lat="31.291438" lon="121.53601"/>
    <trkpt lat="31.290725" lon="121.536873"/>
    <trkpt lat="31.289984" lon="121.537772"/>
    <trkpt lat="31.289541" lon="121.538274"/>
    <trkpt lat="31.288756" lon="121.538948"/>
    <trkpt lat="31.288365" lon="121.539275"/>
    <trkpt lat="31.288247" lon="121.539378"/>
    <trkpt lat="31.28807" lon="121.539487"/>
    <trkpt lat="31.28771" lon="121.539642"/>
    <trkpt lat="31.286785" lon="121.540014"/>
    <trkpt lat="31.285705" lon="121.540443"/>
    <trkpt lat="31.284699" lon="121.540825"/>
    <trkpt lat="31.284059" lon="121.541083"/>
    <trkpt lat="31.282982" lon="121.54154"/>
    <trkpt lat="31.282854" lon="121.541617"/>
    <trkpt lat="31.282406" lon="121.541996"/>
    <trkpt lat="31.282091" lon="121.542289"/>
    <trkpt lat="31.281649" lon="121.542772"/>
    <trkpt lat="31.281492" lon="121.542963"/>
    <trkpt lat="31.280958" lon="121.54361"/>
    <trkpt lat="31.280867" lon="121.543727"/>
    <trkpt lat="31.280338" lon="121.544304"/>
    <trkpt lat="31.280266" lon="121.544385"/>
    <trkpt lat="31.278944" lon="121.545951"/>
    <trkpt lat="31.278137" lon="121.546887"/>
    <trkpt lat="31.2777" lon="121.547421"/>
    <trkpt lat="31.276116" lon="121.54939"/>
    <trkpt lat="31.275453" lon="121.550224"/>
    <trkpt lat="31.274516" lon="121.551421"/>
    <trkpt lat="31.273785" lon="121.552281"/>
    <trkpt lat="31.273751" lon="121.552329"/>
    <trkpt lat="31.2735" lon="121.55263"/>
    <trkpt lat="31.273717" lon="121.552901"/>
    <trkpt lat="31.274184" lon="121.553402"/>
    <trkpt lat="31.274835" lon="121.554116"/>
    <trkpt lat="31.275114" lon="121.554408"/>
    <trkpt lat="31.275529" lon="121.554803"/>
    <trkpt lat="31.27564" lon="121.554902"/>
    <trkpt lat="31.275759" lon="121.555018"/>
  </trkseg></trk>
</gpx>
